{"type": "FeatureCollection", "features": [ {"type": "Feature", "properties": {"norad_id": 31183, "name": "FENGYUN 1C DEB", "group": "fengyun-1c-debris", "lat": 11.529559473630616, "lon": -24.776905601290864, "alt_km": 717.8855753628322, "timestamp": "2025-12-18T21:31:51.282554+00:00", "meta": {"OBJECT_NAME": "FENGYUN 1C DEB", "OBJECT_ID": "1999-025BJM", "EPOCH": "2025-12-18T04:59:29.136768", "MEAN_MOTION": 14.50482477, "ECCENTRICITY": 0.00476997, "INCLINATION": 99.0357, "RA_OF_ASC_NODE": 336.3442, "ARG_OF_PERICENTER": 91.339, "MEAN_ANOMALY": 284.5093, "EPHEMERIS_TYPE": 0, "CLASSIFICATION_TYPE": "U", "NORAD_CAT_ID": 31183, "ELEMENT_SET_NO": 999, "REV_AT_EPOCH": 97562, "BSTAR": 0.00096456435, "MEAN_MOTION_DOT": 3.778e-05, "MEAN_MOTION_DDOT": 0}, "tle": {"line1": "1 31183U 99025BJM 25352.20797612  .00003778  00000+0  96456-3 0  9999", "line2": "2 31183  99.0357 336.3442 0047699  91.3390 284.5093 14.50482477975628"}}, "geometry": {"type": "Point", "coordinates": [-24.776905601290864, 11.529559473630616]}}, {"type": "Feature", "properties": {"norad_id": 31185, "name": "FENGYUN 1C DEB", "group": "fengyun-1c-debris", "lat": -9.033100696032408, "lon": -9.397290672543368, "alt_km": 891.3382106476311, "timestamp": "2025-12-18T21:31:51.282597+00:00", "meta": {"OBJECT_NAME": "FENGYUN 1C DEB", "OBJECT_ID": "1999-025BJP", "EPOCH": "2025-12-03T06:44:56.905152", "MEAN_MOTION": 14.03019915, "ECCENTRICITY": 0.0041359, "INCLINATION": 98.8321, "RA_OF_ASC_NODE": 334.0356, "ARG_OF_PERICENTER": 132.5488, "MEAN_ANOMALY": 227.9182, "EPHEMERIS_TYPE": 0, "CLASSIFICATION_TYPE": "U", "NORAD_CAT_ID": 31185, "ELEMENT_SET_NO": 999, "REV_AT_EPOCH": 62204, "BSTAR": 0.0004459, "MEAN_MOTION_DOT": 6.55e-06, "MEAN_MOTION_DDOT": 0}, "tle": {"line1": "1 31185U 99025BJP 25337.28121418  .00000655  00000+0  44590-3 0  9990", "line2": "2 31185  98.8321 334.0356 0041359 132.5488 227.9182 14.03019915622046"}}, "geometry": {"type": "Point", "coordinates": [-9.397290672543368, -9.033100696032408]}}, {"type": "Feature", "properties": {"norad_id": 31186, "name": "FENGYUN 1C DEB", "group": "fengyun-1c-debris", "lat": 33.03592483036073, "lon": -97.6285974922132, "alt_km": 828.4465045239758, "timestamp": "2025-12-18T21:31:51.282612+00:00", "meta": {"OBJECT_NAME": "FENGYUN 1C DEB", "OBJECT_ID": "1999-025BJQ", "EPOCH": "2025-12-07T00:08:36.055104", "MEAN_MOTION": 14.12891869, "ECCENTRICITY": 0.00265947, "INCLINATION": 99.1777, "RA_OF_ASC_NODE": 256.2241, "ARG_OF_PERICENTER": 78.4554, "MEAN_ANOMALY": 344.6063, "EPHEMERIS_TYPE": 0, "CLASSIFICATION_TYPE": "U", "NORAD_CAT_ID": 31186, "ELEMENT_SET_NO": 999, "REV_AT_EPOCH": 96024, "BSTAR": 0.00076036897, "MEAN_MOTION_DOT": 1.373e-05, "MEAN_MOTION_DDOT": 0}, "tle": {"line1": "1 31186U 99025BJQ 25341.00597286  .00001373  00000+0  76037-3 0  9995", "line2": "2 31186  99.1777 256.2241 0026594  78.4554 344.6063 14.12891869960248"}}, "geometry": {"type": "Point", "coordinates": [-97.6285974922132, 33.03592483036073]}}, {"type": "Feature", "properties": {"norad_id": 31187, "name": "FENGYUN 1C DEB", "group": "fengyun-1c-debris", "lat": -56.483279295551576, "lon": 22.815738764928362, "alt_km": 569.6527250916433, "timestamp": "2025-12-18T21:31:51.282622+00:00", "meta": {"OBJECT_NAME": "FENGYUN 1C DEB", "OBJECT_ID": "1999-025BJR", "EPOCH": "2025-12-18T02:20:54.271104", "MEAN_MOTION": 14.59549756, "ECCENTRICITY": 0.02196552, "INCLINATION": 99.2414, "RA_OF_ASC_NODE": 216.1564, "ARG_OF_PERICENTER": 207.4437, "MEAN_ANOMALY": 151.5021, "EPHEMERIS_TYPE": 0, "CLASSIFICATION_TYPE": "U", "NORAD_CAT_ID": 31187, "ELEMENT_SET_NO": 999, "REV_AT_EPOCH": 69178, "BSTAR": 0.0021858268, "MEAN_MOTION_DOT": 0.00014532, "MEAN_MOTION_DDOT": 0}, "tle": {"line1": "1 31187U 99025BJR 25352.09785036  .00014532  00000+0  21858-2 0  9990", "line2": "2 31187  99.2414 216.1564 0219655 207.4437 151.5021 14.59549756691782"}}, "geometry": {"type": "Point", "coordinates": [22.815738764928362, -56.483279295551576]}}, {"type": "Feature", "properties": {"norad_id": 31188, "name": "FENGYUN 1C DEB", "group": "fengyun-1c-debris", "lat": -37.89098554172259, "lon": 67.5369228358954, "alt_km": 818.3795728257364, "timestamp": "2025-12-18T21:31:51.282632+00:00", "meta": {"OBJECT_NAME": "FENGYUN 1C DEB", "OBJECT_ID": "1999-025BJS", "EPOCH": "2025-12-16T18:02:32.554752", "MEAN_MOTION": 14.23850924, "ECCENTRICITY": 0.00605054, "INCLINATION": 98.7493, "RA_OF_ASC_NODE": 58.5194, "ARG_OF_PERICENTER": 237.9393, "MEAN_ANOMALY": 252.4157, "EPHEMERIS_TYPE": 0, "CLASSIFICATION_TYPE": "U", "NORAD_CAT_ID": 31188, "ELEMENT_SET_NO": 999, "REV_AT_EPOCH": 96393, "BSTAR": 0.0011252677, "MEAN_MOTION_DOT": 2.581e-05, "MEAN_MOTION_DDOT": 0}, "tle": {"line1": "1 31188U 99025BJS 25350.75176568  .00002581  00000+0  11253-2 0  9995", "line2": "2 31188  98.7493  58.5194 0060505 237.9393 252.4157 14.23850924963931"}}, "geometry": {"type": "Point", "coordinates": [67.5369228358954, -37.89098554172259]}}, {"type": "Feature", "properties": {"norad_id": 31190, "name": "FENGYUN 1C DEB", "group": "fengyun-1c-debris", "lat": 31.375287018373637, "lon": 0.0052549059876955415, "alt_km": 921.8313684032955, "timestamp": "2025-12-18T21:31:51.282643+00:00", "meta": {"OBJECT_NAME": "FENGYUN 1C DEB", "OBJECT_ID": "1999-025BJU", "EPOCH": "2025-12-15T23:14:05.075520", "MEAN_MOTION": 14.03609027, "ECCENTRICITY": 0.00676763, "INCLINATION": 98.819, "RA_OF_ASC_NODE": 2.5971, "ARG_OF_PERICENTER": 250.3103, "MEAN_ANOMALY": 109.0754, "EPHEMERIS_TYPE": 0, "CLASSIFICATION_TYPE": "U", "NORAD_CAT_ID": 31190, "ELEMENT_SET_NO": 999, "REV_AT_EPOCH": 95592, "BSTAR": 0.00091857664, "MEAN_MOTION_DOT": 1.428e-05, "MEAN_MOTION_DDOT": 0}, "tle": {"line1": "1 31190U 99025BJU 25349.96811430  .00001428  00000+0  91858-3 0  9992", "line2": "2 31190  98.8190   2.5971 0067676 250.3103 109.0754 14.03609027955929"}}, "geometry": {"type": "Point", "coordinates": [0.0052549059876955415, 31.375287018373637]}}, {"type": "Feature", "properties": {"norad_id": 31191, "name": "FENGYUN 1C DEB", "group": "fengyun-1c-debris", "lat": 6.329202549625834, "lon": -107.02932363935146, "alt_km": 822.8110249933425, "timestamp": "2025-12-18T21:31:51.282653+00:00", "meta": {"OBJECT_NAME": "FENGYUN 1C DEB", "OBJECT_ID": "1999-025BJV", "EPOCH": "2025-12-17T23:50:00.543840", "MEAN_MOTION": 14.40802745, "ECCENTRICITY": 0.00925044, "INCLINATION": 98.7832, "RA_OF_ASC_NODE": 253.0251, "ARG_OF_PERICENTER": 178.76, "MEAN_ANOMALY": 181.3834, "EPHEMERIS_TYPE": 0, "CLASSIFICATION_TYPE": "U", "NORAD_CAT_ID": 31191, "ELEMENT_SET_NO": 999, "REV_AT_EPOCH": 98088, "BSTAR": 0.00025516631, "MEAN_MOTION_DOT": 8.1e-06, "MEAN_MOTION_DDOT": 0}, "tle": {"line1": "1 31191U 99025BJV 25351.99306185  .00000810  00000+0  25517-3 0  9998", "line2": "2 31191  98.7832 253.0251 0092504 178.7600 181.3834 14.40802745980887"}}, "geometry": {"type": "Point", "coordinates": [-107.02932363935146, 6.329202549625834]}}, {"type": "Feature", "properties": {"norad_id": 31192, "name": "FENGYUN 1C DEB", "group": "fengyun-1c-debris", "lat": -12.309475017833368, "lon": 154.51363169606972, "alt_km": 874.7791261856455, "timestamp": "2025-12-18T21:31:51.282663+00:00", "meta": {"OBJECT_NAME": "FENGYUN 1C DEB", "OBJECT_ID": "1999-025BJW", "EPOCH": "2025-12-18T05:26:47.399136", "MEAN_MOTION": 14.20969234, "ECCENTRICITY": 0.02596771, "INCLINATION": 98.5531, "RA_OF_ASC_NODE": 335.7459, "ARG_OF_PERICENTER": 87.8687, "MEAN_ANOMALY": 275.22, "EPHEMERIS_TYPE": 0, "CLASSIFICATION_TYPE": "U", "NORAD_CAT_ID": 31192, "ELEMENT_SET_NO": 999, "REV_AT_EPOCH": 96821, "BSTAR": 0.00023851293, "MEAN_MOTION_DOT": 6.81e-06, "MEAN_MOTION_DDOT": 0}, "tle": {"line1": "1 31192U 99025BJW 25352.22693749  .00000681  00000+0  23851-3 0  9996", "line2": "2 31192  98.5531 335.7459 0259677  87.8687 275.2200 14.20969234968219"}}, "geometry": {"type": "Point", "coordinates": [154.51363169606972, -12.309475017833368]}}, {"type": "Feature", "properties": {"norad_id": 31194, "name": "FENGYUN 1C DEB", "group": "fengyun-1c-debris", "lat": 75.55259054803932, "lon": 99.99822823861507, "alt_km": 800.5064687719068, "timestamp": "2025-12-18T21:31:51.282673+00:00", "meta": {"OBJECT_NAME": "FENGYUN 1C DEB", "OBJECT_ID": "1999-025BJY", "EPOCH": "2025-12-17T03:16:12.436320", "MEAN_MOTION": 14.3667618, "ECCENTRICITY": 0.00570782, "INCLINATION": 98.9641, "RA_OF_ASC_NODE": 240.384, "ARG_OF_PERICENTER": 266.1914, "MEAN_ANOMALY": 93.2744, "EPHEMERIS_TYPE": 0, "CLASSIFICATION_TYPE": "U", "NORAD_CAT_ID": 31194, "ELEMENT_SET_NO": 999, "REV_AT_EPOCH": 97190, "BSTAR": 0.00077644031, "MEAN_MOTION_DOT": 2.282e-05, "MEAN_MOTION_DDOT": 0}, "tle": {"line1": "1 31194U 99025BJY 25351.13625505  .00002282  00000+0  77644-3 0  9990", "line2": "2 31194  98.9641 240.3840 0057078 266.1914  93.2744 14.36676180971901"}}, "geometry": {"type": "Point", "coordinates": [99.99822823861507, 75.55259054803932]}}, {"type": "Feature", "properties": {"norad_id": 31195, "name": "FENGYUN 1C DEB", "group": "fengyun-1c-debris", "lat": -24.005863604892085, "lon": 29.995325464603308, "alt_km": 995.1785520476024, "timestamp": "2025-12-18T21:31:51.282683+00:00", "meta": {"OBJECT_NAME": "FENGYUN 1C DEB", "OBJECT_ID": "1999-025BJZ", "EPOCH": "2025-12-17T20:04:00.723936", "MEAN_MOTION": 14.07982142, "ECCENTRICITY": 0.01721316, "INCLINATION": 98.7787, "RA_OF_ASC_NODE": 25.017, "ARG_OF_PERICENTER": 166.8291, "MEAN_ANOMALY": 193.7458, "EPHEMERIS_TYPE": 0, "CLASSIFICATION_TYPE": "U", "NORAD_CAT_ID": 31195, "ELEMENT_SET_NO": 999, "REV_AT_EPOCH": 96170, "BSTAR": 7.0269574e-05, "MEAN_MOTION_DOT": 9.5e-07, "MEAN_MOTION_DDOT": 0}, "tle": {"line1": "1 31195U 99025BJZ 25351.83611949  .00000095  00000+0  70270-4 0  9994", "line2": "2 31195  98.7787  25.0170 0172131 166.8291 193.7458 14.07982142961708"}}, "geometry": {"type": "Point", "coordinates": [29.995325464603308, -24.005863604892085]}}]}